STARLINK-3826           
1 52347U 22045S   26068.65309003  .00000466  00000+0  47384-4 0  9997
2 52347  53.2167 199.2929 0001417  91.9647 268.1507 15.08845535215772
RAISE-4                 
1 67073U 25297B   26068.97636248  .00005682  00000+0  37087-3 0  9993
2 67073  97.4953 219.2703 0012713  22.7159 337.4629 15.08174958 12933
